CCSDS_OMM_VERS = 2.0
CREATION_DATE  = 
ORIGINATOR     = 

OBJECT_NAME    = SEASAT 1
OBJECT_ID      = 1978-064A
CENTER_NAME    = EARTH
REF_FRAME      = TEME
TIME_SYSTEM    = UTC
MEAN_ELEMENT_THEORY = SGP/SGP4

EPOCH          = 2026-02-16T01:15:44.171712
MEAN_MOTION    = 14.46142901
ECCENTRICITY   = .00017312
INCLINATION    = 108.0158
RA_OF_ASC_NODE = 80.0926
ARG_OF_PERICENTER = 292.0124
MEAN_ANOMALY   = 68.0838

EPHEMERIS_TYPE = 0
CLASSIFICATION_TYPE = U
NORAD_CAT_ID   = 10967
ELEMENT_SET_NO = 999
REV_AT_EPOCH   = 50338
BSTAR          = .11965894E-3
MEAN_MOTION_DOT = .29E-5
MEAN_MOTION_DDOT = 0

CCSDS_OMM_VERS = 2.0
CREATION_DATE  = 
ORIGINATOR     = 

OBJECT_NAME    = SL-14 R/B
OBJECT_ID      = 1979-011B
CENTER_NAME    = EARTH
REF_FRAME      = TEME
TIME_SYSTEM    = UTC
MEAN_ELEMENT_THEORY = SGP/SGP4

EPOCH          = 2026-02-16T06:02:55.593312
MEAN_MOTION    = 14.91882209
ECCENTRICITY   = .00173775
INCLINATION    = 82.5240
RA_OF_ASC_NODE = 116.9135
ARG_OF_PERICENTER = 126.2199
MEAN_ANOMALY   = 234.0631

EPHEMERIS_TYPE = 0
CLASSIFICATION_TYPE = U
NORAD_CAT_ID   = 11267
ELEMENT_SET_NO = 999
REV_AT_EPOCH   = 52558
BSTAR          = .60481629E-4
MEAN_MOTION_DOT = .638E-5
MEAN_MOTION_DDOT = 0

CCSDS_OMM_VERS = 2.0
CREATION_DATE  = 
ORIGINATOR     = 

OBJECT_NAME    = SL-8 R/B
OBJECT_ID      = 1979-089B
CENTER_NAME    = EARTH
REF_FRAME      = TEME
TIME_SYSTEM    = UTC
MEAN_ELEMENT_THEORY = SGP/SGP4

EPOCH          = 2026-02-16T05:51:21.276000
MEAN_MOTION    = 14.42337290
ECCENTRICITY   = .00167914
INCLINATION    = 74.0693
RA_OF_ASC_NODE = 130.7423
ARG_OF_PERICENTER = 305.8350
MEAN_ANOMALY   = 54.1246

EPHEMERIS_TYPE = 0
CLASSIFICATION_TYPE = U
NORAD_CAT_ID   = 11574
ELEMENT_SET_NO = 999
REV_AT_EPOCH   = 43301
BSTAR          = .90882428E-4
MEAN_MOTION_DOT = .274E-5
MEAN_MOTION_DDOT = 0

CCSDS_OMM_VERS = 2.0
CREATION_DATE  = 
ORIGINATOR     = 

OBJECT_NAME    = SL-14 R/B
OBJECT_ID      = 1980-005B
CENTER_NAME    = EARTH
REF_FRAME      = TEME
TIME_SYSTEM    = UTC
MEAN_ELEMENT_THEORY = SGP/SGP4

EPOCH          = 2026-02-16T06:01:23.452896
MEAN_MOTION    = 14.90902614
ECCENTRICITY   = .00143646
INCLINATION    = 82.5174
RA_OF_ASC_NODE = 327.5671
ARG_OF_PERICENTER = 231.7031
MEAN_ANOMALY   = 128.2897

EPHEMERIS_TYPE = 0
CLASSIFICATION_TYPE = U
NORAD_CAT_ID   = 11672
ELEMENT_SET_NO = 999
REV_AT_EPOCH   = 47329
BSTAR          = .66558238E-4
MEAN_MOTION_DOT = .682E-5
MEAN_MOTION_DDOT = 0

CCSDS_OMM_VERS = 2.0
CREATION_DATE  = 
ORIGINATOR     = 

OBJECT_NAME    = SL-8 R/B
OBJECT_ID      = 1981-003B
CENTER_NAME    = EARTH
REF_FRAME      = TEME
TIME_SYSTEM    = UTC
MEAN_ELEMENT_THEORY = SGP/SGP4

EPOCH          = 2026-02-16T04:56:40.710336
MEAN_MOTION    = 15.10178344
ECCENTRICITY   = .02625687
INCLINATION    = 82.9402
RA_OF_ASC_NODE = 309.8760
ARG_OF_PERICENTER = 253.5267
MEAN_ANOMALY   = 103.6967

EPHEMERIS_TYPE = 0
CLASSIFICATION_TYPE = U
NORAD_CAT_ID   = 12139
ELEMENT_SET_NO = 999
REV_AT_EPOCH   = 31143
BSTAR          = .41883532E-3
MEAN_MOTION_DOT = .15883E-3
MEAN_MOTION_DDOT = 0

CCSDS_OMM_VERS = 2.0
CREATION_DATE  = 
ORIGINATOR     = 

OBJECT_NAME    = SL-3 R/B
OBJECT_ID      = 1981-046B
CENTER_NAME    = EARTH
REF_FRAME      = TEME
TIME_SYSTEM    = UTC
MEAN_ELEMENT_THEORY = SGP/SGP4

EPOCH          = 2026-02-16T05:39:54.848736
MEAN_MOTION    = 15.41392245
ECCENTRICITY   = .0020799
INCLINATION    = 81.2344
RA_OF_ASC_NODE = 315.4895
ARG_OF_PERICENTER = 93.0317
MEAN_ANOMALY   = 267.3306

EPHEMERIS_TYPE = 0
CLASSIFICATION_TYPE = U
NORAD_CAT_ID   = 12465
ELEMENT_SET_NO = 999
REV_AT_EPOCH   = 43512
BSTAR          = .35337298E-3
MEAN_MOTION_DOT = .14913E-3
MEAN_MOTION_DDOT = 0

CCSDS_OMM_VERS = 2.0
CREATION_DATE  = 
ORIGINATOR     = 

OBJECT_NAME    = SL-3 R/B
OBJECT_ID      = 1981-103B
CENTER_NAME    = EARTH
REF_FRAME      = TEME
TIME_SYSTEM    = UTC
MEAN_ELEMENT_THEORY = SGP/SGP4

EPOCH          = 2026-02-16T06:19:13.436544
MEAN_MOTION    = 15.21108981
ECCENTRICITY   = .00133108
INCLINATION    = 81.1556
RA_OF_ASC_NODE = 238.5658
ARG_OF_PERICENTER = 1.7916
MEAN_ANOMALY   = 358.3360

EPHEMERIS_TYPE = 0
CLASSIFICATION_TYPE = U
NORAD_CAT_ID   = 12904
ELEMENT_SET_NO = 999
REV_AT_EPOCH   = 96997
BSTAR          = .28810538E-3
MEAN_MOTION_DOT = .6447E-4
MEAN_MOTION_DDOT = 0

CCSDS_OMM_VERS = 2.0
CREATION_DATE  = 
ORIGINATOR     = 

OBJECT_NAME    = SL-3 R/B
OBJECT_ID      = 1982-013B
CENTER_NAME    = EARTH
REF_FRAME      = TEME
TIME_SYSTEM    = UTC
MEAN_ELEMENT_THEORY = SGP/SGP4

EPOCH          = 2026-02-16T05:09:21.790656
MEAN_MOTION    = 15.21770965
ECCENTRICITY   = .00217159
INCLINATION    = 81.1750
RA_OF_ASC_NODE = 185.9305
ARG_OF_PERICENTER = 251.5622
MEAN_ANOMALY   = 108.3249

EPHEMERIS_TYPE = 0
CLASSIFICATION_TYPE = U
NORAD_CAT_ID   = 13068
ELEMENT_SET_NO = 999
REV_AT_EPOCH   = 40108
BSTAR          = .23441487E-3
MEAN_MOTION_DOT = .5374E-4
MEAN_MOTION_DDOT = 0

CCSDS_OMM_VERS = 2.0
CREATION_DATE  = 
ORIGINATOR     = 

OBJECT_NAME    = SL-3 R/B
OBJECT_ID      = 1982-039B
CENTER_NAME    = EARTH
REF_FRAME      = TEME
TIME_SYSTEM    = UTC
MEAN_ELEMENT_THEORY = SGP/SGP4

EPOCH          = 2026-02-16T06:04:44.204160
MEAN_MOTION    = 15.09956841
ECCENTRICITY   = .00300403
INCLINATION    = 81.1593
RA_OF_ASC_NODE = 240.6725
ARG_OF_PERICENTER = 34.5325
MEAN_ANOMALY   = 325.7844

EPHEMERIS_TYPE = 0
CLASSIFICATION_TYPE = U
NORAD_CAT_ID   = 13154
ELEMENT_SET_NO = 999
REV_AT_EPOCH   = 37840
BSTAR          = .16276536E-3
MEAN_MOTION_DOT = .2692E-4
MEAN_MOTION_DDOT = 0

CCSDS_OMM_VERS = 2.0
CREATION_DATE  = 
ORIGINATOR     = 

OBJECT_NAME    = SL-3 R/B
OBJECT_ID      = 1982-079B
CENTER_NAME    = EARTH
REF_FRAME      = TEME
TIME_SYSTEM    = UTC
MEAN_ELEMENT_THEORY = SGP/SGP4

EPOCH          = 2026-02-16T04:56:02.815296
MEAN_MOTION    = 15.24465550
ECCENTRICITY   = .00242565
INCLINATION    = 81.1443
RA_OF_ASC_NODE = 218.4387
ARG_OF_PERICENTER = 238.1652
MEAN_ANOMALY   = 121.7220

EPHEMERIS_TYPE = 0
CLASSIFICATION_TYPE = U
NORAD_CAT_ID   = 13403
ELEMENT_SET_NO = 999
REV_AT_EPOCH   = 37442
BSTAR          = .27613613E-3
MEAN_MOTION_DOT = .6862E-4
MEAN_MOTION_DDOT = 0

CCSDS_OMM_VERS = 2.0
CREATION_DATE  = 
ORIGINATOR     = 

OBJECT_NAME    = SL-14 R/B
OBJECT_ID      = 1982-092B
CENTER_NAME    = EARTH
REF_FRAME      = TEME
TIME_SYSTEM    = UTC
MEAN_ELEMENT_THEORY = SGP/SGP4

EPOCH          = 2026-02-16T07:21:10.920960
MEAN_MOTION    = 14.86642972
ECCENTRICITY   = .00206813
INCLINATION    = 82.5709
RA_OF_ASC_NODE = 161.3938
ARG_OF_PERICENTER = 16.5463
MEAN_ANOMALY   = 39.8681

EPHEMERIS_TYPE = 0
CLASSIFICATION_TYPE = U
NORAD_CAT_ID   = 13553
ELEMENT_SET_NO = 999
REV_AT_EPOCH   = 32575
BSTAR          = .61460688E-4
MEAN_MOTION_DOT = .572E-5
MEAN_MOTION_DDOT = 0

CCSDS_OMM_VERS = 2.0
CREATION_DATE  = 
ORIGINATOR     = 

OBJECT_NAME    = SL-3 R/B
OBJECT_ID      = 1983-010B
CENTER_NAME    = EARTH
REF_FRAME      = TEME
TIME_SYSTEM    = UTC
MEAN_ELEMENT_THEORY = SGP/SGP4

EPOCH          = 2026-02-16T00:18:23.756544
MEAN_MOTION    = 15.45551294
ECCENTRICITY   = .00184339
INCLINATION    = 81.1024
RA_OF_ASC_NODE = 28.8056
ARG_OF_PERICENTER = 119.1509
MEAN_ANOMALY   = 241.1583

EPHEMERIS_TYPE = 0
CLASSIFICATION_TYPE = U
NORAD_CAT_ID   = 13819
ELEMENT_SET_NO = 999
REV_AT_EPOCH   = 35459
BSTAR          = .34419019E-3
MEAN_MOTION_DOT = .16682E-3
MEAN_MOTION_DDOT = 0

CCSDS_OMM_VERS = 2.0
CREATION_DATE  = 
ORIGINATOR     = 

OBJECT_NAME    = SL-3 R/B
OBJECT_ID      = 1983-075B
CENTER_NAME    = EARTH
REF_FRAME      = TEME
TIME_SYSTEM    = UTC
MEAN_ELEMENT_THEORY = SGP/SGP4

EPOCH          = 2026-02-16T05:14:39.623424
MEAN_MOTION    = 15.37858418
ECCENTRICITY   = .00202005
INCLINATION    = 97.6126
RA_OF_ASC_NODE = 50.9945
ARG_OF_PERICENTER = 310.4324
MEAN_ANOMALY   = 49.5158

EPHEMERIS_TYPE = 0
CLASSIFICATION_TYPE = U
NORAD_CAT_ID   = 14208
ELEMENT_SET_NO = 999
REV_AT_EPOCH   = 32685
BSTAR          = .35356408E-3
MEAN_MOTION_DOT = .13165E-3
MEAN_MOTION_DDOT = 0

CCSDS_OMM_VERS = 2.0
CREATION_DATE  = 
ORIGINATOR     = 

OBJECT_NAME    = COSMOS 1536
OBJECT_ID      = 1984-013A
CENTER_NAME    = EARTH
REF_FRAME      = TEME
TIME_SYSTEM    = UTC
MEAN_ELEMENT_THEORY = SGP/SGP4

EPOCH          = 2026-02-16T05:52:32.956896
MEAN_MOTION    = 15.23527822
ECCENTRICITY   = .00141832
INCLINATION    = 82.5466
RA_OF_ASC_NODE = 129.1596
ARG_OF_PERICENTER = 4.3014
MEAN_ANOMALY   = 355.8342

EPHEMERIS_TYPE = 0
CLASSIFICATION_TYPE = U
NORAD_CAT_ID   = 14699
ELEMENT_SET_NO = 999
REV_AT_EPOCH   = 26935
BSTAR          = .25828171E-3
MEAN_MOTION_DOT = .6216E-4
MEAN_MOTION_DDOT = 0

CCSDS_OMM_VERS = 2.0
CREATION_DATE  = 
ORIGINATOR     = 

OBJECT_NAME    = SL-14 R/B
OBJECT_ID      = 1984-027B
CENTER_NAME    = EARTH
REF_FRAME      = TEME
TIME_SYSTEM    = UTC
MEAN_ELEMENT_THEORY = SGP/SGP4

EPOCH          = 2026-02-16T01:51:51.015456
MEAN_MOTION    = 14.85954409
ECCENTRICITY   = .001915
INCLINATION    = 82.5389
RA_OF_ASC_NODE = 265.2876
ARG_OF_PERICENTER = 48.3656
MEAN_ANOMALY   = 311.9197

EPHEMERIS_TYPE = 0
CLASSIFICATION_TYPE = U
NORAD_CAT_ID   = 14820
ELEMENT_SET_NO = 999
REV_AT_EPOCH   = 24442
BSTAR          = .51835294E-4
MEAN_MOTION_DOT = .478E-5
MEAN_MOTION_DDOT = 0

